[{"OBJECT_NAME":"STARLINK-34434","OBJECT_ID":"2025-129L","EPOCH":"2026-03-09T10:15:51.910560","MEAN_MOTION":14.98323947,"ECCENTRICITY":0.00031636,"INCLINATION":70.0009,"RA_OF_ASC_NODE":75.2956,"ARG_OF_PERICENTER":271.5115,"MEAN_ANOMALY":88.5682,"EPHEMERIS_TYPE":0,"CLASSIFICATION_TYPE":"U","NORAD_CAT_ID":64422,"ELEMENT_SET_NO":999,"REV_AT_EPOCH":4124,"BSTAR":-0.00026984256,"MEAN_MOTION_DOT":-3.311e-5,"MEAN_MOTION_DDOT":0},{"OBJECT_NAME":"SL-16 DEB","OBJECT_ID":"1992-093Q","EPOCH":"2026-03-09T20:54:01.402848","MEAN_MOTION":15.00181451,"ECCENTRICITY":0.00550249,"INCLINATION":71.1124,"RA_OF_ASC_NODE":226.4429,"ARG_OF_PERICENTER":133.8558,"MEAN_ANOMALY":343.0626,"EPHEMERIS_TYPE":0,"CLASSIFICATION_TYPE":"U","NORAD_CAT_ID":22327,"ELEMENT_SET_NO":999,"REV_AT_EPOCH":74843,"BSTAR":0.0011337635,"MEAN_MOTION_DOT":0.00014594,"MEAN_MOTION_DDOT":0}]
